CCSDS_OMM_VERS = 2.0
CREATION_DATE  = 
ORIGINATOR     = 

OBJECT_NAME    = UNKNOWN
OBJECT_ID      = 
CENTER_NAME    = EARTH
REF_FRAME      = TEME
TIME_SYSTEM    = UTC
MEAN_ELEMENT_THEORY = SGP/SGP4

EPOCH          = 2025-10-30T14:46:25.157280
MEAN_MOTION    = 14.33739963
ECCENTRICITY   = .0135484
INCLINATION    = 73.2819
RA_OF_ASC_NODE = 264.3350
ARG_OF_PERICENTER = 32.1719
MEAN_ANOMALY   = 79.0830

EPHEMERIS_TYPE = 0
CLASSIFICATION_TYPE = U
NORAD_CAT_ID   = 82524
ELEMENT_SET_NO = 999
REV_AT_EPOCH   = 57085
BSTAR          = .41919E-2
MEAN_MOTION_DOT = .12896E-3
MEAN_MOTION_DDOT = 0

CCSDS_OMM_VERS = 2.0
CREATION_DATE  = 
ORIGINATOR     = 

OBJECT_NAME    = UNKNOWN
OBJECT_ID      = 
CENTER_NAME    = EARTH
REF_FRAME      = TEME
TIME_SYSTEM    = UTC
MEAN_ELEMENT_THEORY = SGP/SGP4

EPOCH          = 2025-10-26T23:51:42.430176
MEAN_MOTION    = 13.41050414
ECCENTRICITY   = .0234679
INCLINATION    = 99.7919
RA_OF_ASC_NODE = 24.8601
ARG_OF_PERICENTER = 354.9426
MEAN_ANOMALY   = 183.4235

EPHEMERIS_TYPE = 0
CLASSIFICATION_TYPE = U
NORAD_CAT_ID   = 82529
ELEMENT_SET_NO = 999
REV_AT_EPOCH   = 58347
BSTAR          = .48016E-3
MEAN_MOTION_DOT = .269E-5
MEAN_MOTION_DDOT = 0

CCSDS_OMM_VERS = 2.0
CREATION_DATE  = 
ORIGINATOR     = 

OBJECT_NAME    = UNKNOWN
OBJECT_ID      = 
CENTER_NAME    = EARTH
REF_FRAME      = TEME
TIME_SYSTEM    = UTC
MEAN_ELEMENT_THEORY = SGP/SGP4

EPOCH          = 2025-10-28T01:53:06.343296
MEAN_MOTION    = 13.90445136
ECCENTRICITY   = .0011981
INCLINATION    = 99.9836
RA_OF_ASC_NODE = 240.2747
ARG_OF_PERICENTER = 58.1321
MEAN_ANOMALY   = 319.3804

EPHEMERIS_TYPE = 0
CLASSIFICATION_TYPE = U
NORAD_CAT_ID   = 82560
ELEMENT_SET_NO = 999
REV_AT_EPOCH   = 60552
BSTAR          = .14952E-2
MEAN_MOTION_DOT = .1809E-4
MEAN_MOTION_DDOT = 0

CCSDS_OMM_VERS = 2.0
CREATION_DATE  = 
ORIGINATOR     = 

OBJECT_NAME    = UNKNOWN
OBJECT_ID      = 
CENTER_NAME    = EARTH
REF_FRAME      = TEME
TIME_SYSTEM    = UTC
MEAN_ELEMENT_THEORY = SGP/SGP4

EPOCH          = 2025-10-30T14:05:11.173632
MEAN_MOTION    = 14.35472466
ECCENTRICITY   = .0095278
INCLINATION    = 66.7703
RA_OF_ASC_NODE = 261.5917
ARG_OF_PERICENTER = 337.2874
MEAN_ANOMALY   = 22.4023

EPHEMERIS_TYPE = 0
CLASSIFICATION_TYPE = U
NORAD_CAT_ID   = 82597
ELEMENT_SET_NO = 999
REV_AT_EPOCH   = 62278
BSTAR          = .13046E-2
MEAN_MOTION_DOT = .3869E-4
MEAN_MOTION_DDOT = 0

CCSDS_OMM_VERS = 2.0
CREATION_DATE  = 
ORIGINATOR     = 

OBJECT_NAME    = UNKNOWN
OBJECT_ID      = 
CENTER_NAME    = EARTH
REF_FRAME      = TEME
TIME_SYSTEM    = UTC
MEAN_ELEMENT_THEORY = SGP/SGP4

EPOCH          = 2025-10-29T18:19:43.076064
MEAN_MOTION    = 14.49299104
ECCENTRICITY   = .0040091
INCLINATION    = 74.0272
RA_OF_ASC_NODE = 326.1798
ARG_OF_PERICENTER = 280.5269
MEAN_ANOMALY   = 79.1375

EPHEMERIS_TYPE = 0
CLASSIFICATION_TYPE = U
NORAD_CAT_ID   = 82617
ELEMENT_SET_NO = 999
REV_AT_EPOCH   = 63045
BSTAR          = .23959E-3
MEAN_MOTION_DOT = .895E-5
MEAN_MOTION_DDOT = 0

CCSDS_OMM_VERS = 2.0
CREATION_DATE  = 
ORIGINATOR     = 

OBJECT_NAME    = UNKNOWN
OBJECT_ID      = 
CENTER_NAME    = EARTH
REF_FRAME      = TEME
TIME_SYSTEM    = UTC
MEAN_ELEMENT_THEORY = SGP/SGP4

EPOCH          = 2025-10-29T21:34:21.241344
MEAN_MOTION    = 13.16211052
ECCENTRICITY   = .0008319
INCLINATION    = 82.4734
RA_OF_ASC_NODE = 279.9007
ARG_OF_PERICENTER = 208.0711
MEAN_ANOMALY   = 180.5201

EPHEMERIS_TYPE = 0
CLASSIFICATION_TYPE = U
NORAD_CAT_ID   = 82627
ELEMENT_SET_NO = 999
REV_AT_EPOCH   = 57306
BSTAR          = .18072E-2
MEAN_MOTION_DOT = .699E-5
MEAN_MOTION_DDOT = 0

CCSDS_OMM_VERS = 2.0
CREATION_DATE  = 
ORIGINATOR     = 

OBJECT_NAME    = UNKNOWN
OBJECT_ID      = 
CENTER_NAME    = EARTH
REF_FRAME      = TEME
TIME_SYSTEM    = UTC
MEAN_ELEMENT_THEORY = SGP/SGP4

EPOCH          = 2025-10-28T16:55:00.895008
MEAN_MOTION    = 14.06910870
ECCENTRICITY   = .0138374
INCLINATION    = 98.9704
RA_OF_ASC_NODE = 212.5670
ARG_OF_PERICENTER = 3.2692
MEAN_ANOMALY   = 356.9349

EPHEMERIS_TYPE = 0
CLASSIFICATION_TYPE = U
NORAD_CAT_ID   = 82642
ELEMENT_SET_NO = 999
REV_AT_EPOCH   = 60980
BSTAR          = .17268E-2
MEAN_MOTION_DOT = .3096E-4
MEAN_MOTION_DDOT = 0

CCSDS_OMM_VERS = 2.0
CREATION_DATE  = 
ORIGINATOR     = 

OBJECT_NAME    = UNKNOWN
OBJECT_ID      = 
CENTER_NAME    = EARTH
REF_FRAME      = TEME
TIME_SYSTEM    = UTC
MEAN_ELEMENT_THEORY = SGP/SGP4

EPOCH          = 2025-10-30T10:16:11.937216
MEAN_MOTION    = 14.19950345
ECCENTRICITY   = .021194
INCLINATION    = 98.1777
RA_OF_ASC_NODE = 15.6224
ARG_OF_PERICENTER = 162.4940
MEAN_ANOMALY   = 198.3691

EPHEMERIS_TYPE = 0
CLASSIFICATION_TYPE = U
NORAD_CAT_ID   = 82683
ELEMENT_SET_NO = 999
REV_AT_EPOCH   = 45612
BSTAR          = .95653E-3
MEAN_MOTION_DOT = .2506E-4
MEAN_MOTION_DDOT = 0

CCSDS_OMM_VERS = 2.0
CREATION_DATE  = 
ORIGINATOR     = 

OBJECT_NAME    = UNKNOWN
OBJECT_ID      = 
CENTER_NAME    = EARTH
REF_FRAME      = TEME
TIME_SYSTEM    = UTC
MEAN_ELEMENT_THEORY = SGP/SGP4

EPOCH          = 2025-10-25T15:07:01.125696
MEAN_MOTION    = 13.69135328
ECCENTRICITY   = .003806
INCLINATION    = 100.5306
RA_OF_ASC_NODE = 257.7353
ARG_OF_PERICENTER = 140.4369
MEAN_ANOMALY   = 219.9562

EPHEMERIS_TYPE = 0
CLASSIFICATION_TYPE = U
NORAD_CAT_ID   = 82693
ELEMENT_SET_NO = 999
REV_AT_EPOCH   = 54717
BSTAR          = .40035E-2
MEAN_MOTION_DOT = .3434E-4
MEAN_MOTION_DDOT = 0

CCSDS_OMM_VERS = 2.0
CREATION_DATE  = 
ORIGINATOR     = 

OBJECT_NAME    = UNKNOWN
OBJECT_ID      = 
CENTER_NAME    = EARTH
REF_FRAME      = TEME
TIME_SYSTEM    = UTC
MEAN_ELEMENT_THEORY = SGP/SGP4

EPOCH          = 2025-10-23T06:08:05.325216
MEAN_MOTION    = 13.29205577
ECCENTRICITY   = .0685656
INCLINATION    = 61.6138
RA_OF_ASC_NODE = 285.6253
ARG_OF_PERICENTER = 270.7458
MEAN_ANOMALY   = 81.5094

EPHEMERIS_TYPE = 0
CLASSIFICATION_TYPE = U
NORAD_CAT_ID   = 82698
ELEMENT_SET_NO = 999
REV_AT_EPOCH   = 53166
BSTAR          = .13326E-2
MEAN_MOTION_DOT = .22E-4
MEAN_MOTION_DDOT = 0

CCSDS_OMM_VERS = 2.0
CREATION_DATE  = 
ORIGINATOR     = 

OBJECT_NAME    = UNKNOWN
OBJECT_ID      = 
CENTER_NAME    = EARTH
REF_FRAME      = TEME
TIME_SYSTEM    = UTC
MEAN_ELEMENT_THEORY = SGP/SGP4

EPOCH          = 2025-10-23T11:35:19.544640
MEAN_MOTION    = 12.90441701
ECCENTRICITY   = .0061886
INCLINATION    = 102.1689
RA_OF_ASC_NODE = 134.7870
ARG_OF_PERICENTER = 26.2431
MEAN_ANOMALY   = 334.1775

EPHEMERIS_TYPE = 0
CLASSIFICATION_TYPE = U
NORAD_CAT_ID   = 82708
ELEMENT_SET_NO = 999
REV_AT_EPOCH   = 51703
BSTAR          = .48438E-2
MEAN_MOTION_DOT = .1233E-4
MEAN_MOTION_DDOT = 0

CCSDS_OMM_VERS = 2.0
CREATION_DATE  = 
ORIGINATOR     = 

OBJECT_NAME    = UNKNOWN
OBJECT_ID      = 
CENTER_NAME    = EARTH
REF_FRAME      = TEME
TIME_SYSTEM    = UTC
MEAN_ELEMENT_THEORY = SGP/SGP4

EPOCH          = 2025-10-30T05:04:08.187168
MEAN_MOTION    = 12.17684184
ECCENTRICITY   = .0827576
INCLINATION    = 67.9680
RA_OF_ASC_NODE = 221.1356
ARG_OF_PERICENTER = 40.7208
MEAN_ANOMALY   = 325.2736

EPHEMERIS_TYPE = 0
CLASSIFICATION_TYPE = U
NORAD_CAT_ID   = 82729
ELEMENT_SET_NO = 999
REV_AT_EPOCH   = 52990
BSTAR          = .56092E-2
MEAN_MOTION_DOT = .1628E-4
MEAN_MOTION_DDOT = 0

